2022-019M               
1 51835U 22019M   22076.81693056  .00005002  00000+0  31374-3 0  9998
2 51835  97.5204 153.2576 0016177 207.8697 261.3191 15.09665373  2810
2022-019N               
1 51836U 22019N   22076.81620373  .00007287  00000+0  45388-3 0  9998
2 51836  97.5189 153.2616 0016074 207.2267 261.9286 15.09761953  2813
2022-019P               
1 51837U 22019P   22076.81666297  .00007520  00000+0  46615-3 0  9998
2 51837  97.5149 153.2539 0015526 208.1643 274.7686 15.09933372  2815
2022-019Q               
1 51838U 22019Q   22076.81593850  .00005012  00000+0  31225-3 0  9998
2 51838  97.5198 153.2699 0015083 207.0509 273.9405 15.09922476  2817
2022-019R               
1 51839U 22019R   22076.81377817  .00004976  00000+0  31001-3 0  9992
2 51839  97.5186 153.2613 0015127 207.1932 262.3825 15.09926688  2818
2022-019S               
1 51840U 22019S   22076.81618521  .00004998  00000+0  31113-3 0  9992
2 51840  97.5190 153.2656 0015156 205.1646 279.0931 15.09950982  2811
2022-019T               
1 51841U 22019T   22076.74719965  .00004984  00000+0  30978-3 0  9992
2 51841  97.5188 153.2020 0014848 204.3098 269.4279 15.10013771  2808
2022-019U               
1 51842U 22019U   22076.86170307  .00008212  00000+0  33536-3 0  9998
2 51842  97.5662 153.7905 0072361 148.0281 324.3305 15.22228875  2846
2022-019V               
1 51843U 22019V   22076.74715051  .00003008  00000+0  18845-3 0  9991
2 51843  97.5227 153.2125 0015123 211.8297 265.2847 15.10033568  2802
2022-019W               
1 51844U 22019W   22076.68916731  .00004945  00000+0  31408-3 0  9994
2 51844  97.5185 153.1237 0018081 209.9852 253.2366 15.09181048  2695
2022-019X               
1 51845U 22019X   22076.75032995  .00006192  00000+0  38599-3 0  9998
2 51845  97.5193 153.2007 0015880 207.2674 267.8894 15.09800018  2724
2022-019Y               
1 51846U 22019Y   22076.74960064  .00004991  00000+0  31177-3 0  9995
2 51846  97.5177 153.2007 0015702 205.3836 268.3879 15.09818891  2726
STRIX-BETA              
1 51847U 22020A   22076.75359965  .00003678  00000+0  29195-3 0  9999
2 51847  97.7759 130.5366 0012653 231.5922 128.4148 15.01076344  2535
ELECTRON KICK STAGE R/B 
1 51848U 22020B   22076.90862583  .00007000  00000+0  34239-3 0  9990
2 51848  97.0915 128.7964 0059220 331.4577  28.3317 15.16934519  2587
GOES 18                 
1 51850U 22021A   22073.73040451 -.00000150  00000+0  00000+0 0  9999
2 51850   1.3545 332.6851 0948710 182.0382 177.6392  1.16963208   191
ATLAS 5 CENTAUR R/B     
1 51851U 22021B   22075.71256841 -.00000139  00000+0  00000+0 0  9999
2 51851   9.6412 332.6379 4767374 180.8034 177.8871  1.85562945   272
STARLINK-3542           
1 51852U 22022A   22076.91667824 -.00014741  00000+0 -10056-3 0  9992
2 51852  53.2176  73.3466 0000994  59.3061  78.4232 15.73255550  2907
STARLINK-3539           
1 51853U 22022B   22076.91667824  .00083466  00000+0  59397-3 0  9992
2 51853  53.2182  73.3494 0000951  51.6024  85.4811 15.73170830  2901
STARLINK-3541           
1 51854U 22022C   22076.91667824  .00083103  00000+0  59085-3 0  9995
2 51854  53.2176  73.3456 0001238  75.9855  62.3569 15.73193707  2905
STARLINK-3545           
1 51855U 22022D   22076.91667824  .00044362  00000+0  31885-3 0  9998
2 51855  53.2181  73.3440 0001112  62.5491  77.1410 15.73198679  2906
STARLINK-3568           
1 51856U 22022E   22076.91667824  .00012216  00000+0  91182-4 0  9999
2 51856  53.2178  73.3445 0001302  67.3916  71.6485 15.73238504  2907
STARLINK-3571           
1 51857U 22022F   22076.91667824  .00087444  00000+0  62134-3 0  9999
2 51857  53.2181  73.3415 0001180  60.7005  80.2351 15.73187016  2908
STARLINK-3563           
1 51858U 22022G   22076.91667824  .00087648  00000+0  62326-3 0  9999
2 51858  53.2178  73.3422 0001252  65.4893  74.8209 15.73168376  2909
STARLINK-3560           
1 51859U 22022H   22076.91667824  .00086815  00000+0  61664-3 0  9999
2 51859  53.2182  73.3380 0000896  66.2275  76.5861 15.73198943  2911
STARLINK-3559           
1 51860U 22022J   22076.91667824  .00019488  00000+0  14276-3 0  9990
2 51860  53.2179  73.3397 0001433  64.9833  76.6158 15.73230719  2918
STARLINK-3562           
1 51861U 22022K   22076.91667824  .00020056  00000+0  14663-3 0  9994
2 51861  53.2182  73.3357 0001202  66.8033  77.2972 15.73255942  2901
STARLINK-3508           
1 51862U 22022L   22076.91667824  .00085017  00000+0  60515-3 0  9990
2 51862  53.2178  73.3383 0001345  72.6406  69.5764 15.73157549  2900
STARLINK-3555           
1 51863U 22022M   22076.91667824  .00016381  00000+0  12085-3 0  9998
2 51863  53.2182  73.3330 0001310  68.0838  77.3589 15.73210563  2939
STARLINK-3548           
1 51864U 22022N   22076.91667824  .00083248  00000+0  59279-3 0  9991
2 51864  53.2179  73.3364 0001336  72.4951  70.9548 15.73156919  2912
STARLINK-3503           
1 51865U 22022P   22076.91667824  .00085168  00000+0  60568-3 0  9998
2 51865  53.2182  73.3304 0001148  74.2140  72.4820 15.73178073  2906
STARLINK-3553           
1 51866U 22022Q   22076.91667824  .00017426  00000+0  12813-3 0  9991
2 51866  53.2179  73.3338 0001172  62.8035  81.9716 15.73234756  2914
STARLINK-3590           
1 51867U 22022R   22076.91667824  .00015625  00000+0  11542-3 0  9999
2 51867  53.2184  73.3296 0001165  70.4671  76.8889 15.73223929  2900
STARLINK-3578           
1 51868U 22022S   22076.91667824  .00013606  00000+0  10102-3 0  9998
2 51868  53.2181  73.3316 0001210  64.6358  81.3959 15.73242754  2938
STARLINK-3588           
1 51869U 22022T   22076.91667824 -.00021050  00000+0 -14555-3 0  9999
2 51869  53.2184  73.3257 0001299  78.2600  70.9554 15.73261337  2904
STARLINK-3591           
1 51870U 22022U   22076.91667824  .00086154  00000+0  61265-3 0  9995
2 51870  53.2180  73.3275 0001378  68.9462  78.9798 15.73174784  2932
STARLINK-3567           
1 51871U 22022V   22076.91667824  .00014378  00000+0  10662-3 0  9990
2 51871  53.2184  73.3242 0001353  59.9039  90.0078 15.73213776  2935
STARLINK-3554           
1 51872U 22022W   22076.91667824  .00015170  00000+0  11224-3 0  9997
2 51872  53.2181  73.3264 0001303  55.3654  93.2589 15.73215005  2934
STARLINK-3582           
1 51873U 22022X   22076.91667824  .00036229  00000+0  26101-3 0  9996
2 51873  53.2183  73.3208 0001187  60.6264  91.1258 15.73238503  2939
STARLINK-3574           
1 51874U 22022Y   22076.91667824  .00053900  00000+0  38567-3 0  9991
2 51874  53.2180  73.3226 0001028  48.6064 101.8617 15.73219843  2906
STARLINK-3585           
1 51875U 22022Z   22076.91667824  .00086891  00000+0  61797-3 0  9998
2 51875  53.2184  73.3181 0001361  64.9908  88.0780 15.73168409  2941
STARLINK-3583           
1 51876U 22022AA  22076.91667824  .00052935  00000+0  37906-3 0  9996
2 51876  53.2182  73.3213 0001249  59.5832  91.5953 15.73209099  2938
STARLINK-3556           
1 51877U 22022AB  22076.91667824 -.00020850  00000+0 -14412-3 0  9997
2 51877  53.2184  73.3158 0001438  58.0099  96.3329 15.73261703  2916
STARLINK-3575           
1 51878U 22022AC  22076.91667824  .00086801  00000+0  61704-3 0  9990
2 51878  53.2181  73.3191 0001312  73.3932  79.0108 15.73179691  2937
STARLINK-3572           
1 51879U 22022AD  22076.91667824  .00054902  00000+0  39348-3 0  9997
2 51879  53.2184  73.3134 0001376  63.3524  92.2656 15.73173852  2932
STARLINK-3566           
1 51880U 22022AE  22076.91667824  .00018163  00000+0  13339-3 0  9990
2 51880  53.2180  73.3163 0001155  67.5629  86.1563 15.73227929  2933
STARLINK-3504           
1 51881U 22022AF  22076.91667824  .00019910  00000+0  14564-3 0  9993
2 51881  53.2184  73.3106 0001387  60.0700  96.8036 15.73248636  2908
STARLINK-3570           
1 51882U 22022AG  22076.91667824  .00086866  00000+0  61744-3 0  9990
2 51882  53.2181  73.3139 0001208  49.4437 105.5292 15.73181834  2933
STARLINK-3576           
1 51883U 22022AH  22076.91667824  .00015347  00000+0  11341-3 0  9995
2 51883  53.2184  73.3080 0001292  60.8867  97.3029 15.73231572  2907
STARLINK-3577           
1 51884U 22022AJ  22076.91667824  .00052479  00000+0  37598-3 0  9995
2 51884  53.2181  73.3113 0001260  56.4208  99.8376 15.73201184  2905
STARLINK-3584           
1 51885U 22022AK  22076.91667824 -.00013506  00000+0 -91718-4 0  9991
2 51885  53.2184  73.3059 0001188  55.4685 103.9666 15.73263775  2908
STARLINK-3565           
1 51886U 22022AL  22076.91667824  .00086840  00000+0  61739-3 0  9990
2 51886  53.2181  73.3089 0001559  52.6637 104.8817 15.73176738  2930
STARLINK-3551           
1 51887U 22022AM  22076.91667824  .00039720  00000+0  28622-3 0  9990
2 51887  53.2184  73.3046 0001067  60.3161  99.7729 15.73188911  2906
STARLINK-3536           
1 51888U 22022AN  22076.91667824  .00083130  00000+0  59105-3 0  9995
2 51888  53.2181  73.3064 0001136  59.3444  99.4536 15.73193202  2938
STARLINK-3547           
1 51889U 22022AP  22076.91667824 -.00013158  00000+0 -89225-4 0  9998
2 51889  53.2185  73.3008 0000946  55.6063 106.3952 15.73267516  2935
STARLINK-3519           
1 51890U 22022AQ  22076.91667824  .00019663  00000+0  14400-3 0  9997
2 51890  53.2181  73.3027 0001175  41.6270 119.1134 15.73230638  2933
STARLINK-3549           
1 51891U 22022AR  22076.91667824  .00088029  00000+0  62527-3 0  9993
2 51891  53.2185  73.3000 0001480  56.9818 105.6192 15.73192561  2919
STARLINK-3587           
1 51892U 22022AS  22076.91667824  .00084091  00000+0  59775-3 0  9990
2 51892  53.2182  73.3014 0001440  52.5176 108.8594 15.73193553  2909
STARLINK-3579           
1 51893U 22022AT  22076.91667824  .00002823  00000+0  24472-4 0  9991
2 51893  53.2186  73.2973 0001447  60.2513 103.6409 15.73257106  2908
STARLINK-3595           
1 51894U 22022AU  22076.91667824  .00036641  00000+0  26420-3 0  9991
2 51894  53.2180  73.2973 0001126  64.3966  98.9244 15.73212908  2908
